*******************************************************************************
JPL/HORIZONS               324 Bamberga (A892 DA)          2020-Jun-22 08:47:56
Rec #:     324 (+COV) Soln.date: 2020-May-20_01:03:38   # obs: 3181 (1892-2020)
 
IAU76/J2000 helio. ecliptic osc. elements (au, days, deg., period=Julian yrs):
 
  EPOCH=  2451944.5 ! 2001-Feb-04.00 (TDB)         Residual RMS= .24592
   EC= .3380598495411205   QR= 1.777141821189945   TP= 2451776.3260154845
   OM= 328.078136228624    W=  44.31412421632212   IN= 11.09960724925764
   A= 2.684746981971058    MA= 37.67973533311678   ADIST= 3.592352142752172
   PER= 4.39909            N= .224052099           ANGMOM= .026526519
   DAN= 1.91476            DDN= 3.13664            L= 11.8516063
   B= 7.7291041            MOID= .79444301         TP= 2000-Aug-19.8260154845
 
Asteroid physical parameters (km, seconds, rotational period in hours):
   GM= n.a.                RAD= 110.3455           ROTPER= 29.43
   H= 7.                   G= .090                 B-V= .695
                           ALBEDO= .050            STYP= CP
 
ASTEROID comments: 
1: soln ref.= JPL#139, OCC=0
2: source=ORB
*******************************************************************************
 
 
*******************************************************************************
Ephemeris / WWW_USER Mon Jun 22 08:47:56 2020 Pasadena, USA      / Horizons
*******************************************************************************
Target body name: 324 Bamberga (A892 DA)          {source: JPL#139}
Center body name: Solar System Barycenter (0)     {source: DE431}
Center-site name: BODY CENTER
*******************************************************************************
Start time      : A.D. 1969-Jun-28 00:00:00.0000 TDB
Stop  time      : A.D. 2071-May-04 00:00:00.0000 TDB
Step-size       : 7200 minutes
*******************************************************************************
Center geodetic : 0.00000000,0.00000000,0.0000000 {E-lon(deg),Lat(deg),Alt(km)}
Center cylindric: 0.00000000,0.00000000,0.0000000 {E-lon(deg),Dxy(km),Dz(km)}
Center radii    : (undefined)                                                  
Small perturbers: Yes                             {source: SB431-N16}
Output units    : AU-D
Output type     : GEOMETRIC cartesian states
Output format   : 2 (position and velocity)
Reference frame : Ecliptic of J2000.0
*******************************************************************************
Initial IAU76/J2000 heliocentric ecliptic osculating elements (au, days, deg.):
  EPOCH=  2451944.5 ! 2001-Feb-04.00 (TDB)         Residual RMS= .24592        
   EC= .3380598495411205   QR= 1.777141821189945   TP= 2451776.3260154845      
   OM= 328.078136228624    W=  44.31412421632212   IN= 11.09960724925764       
  Equivalent ICRF heliocentric equatorial cartesian coordinates (au, au/d):
   X= 2.315143799699122E-01  Y= 1.774163340348637E+00  Z= 1.175672710503593E+00
  VX=-1.186762299219117E-02 VY= 4.764684398173071E-03 VZ= 1.635389417716439E-03
Asteroid physical parameters (km, seconds, rotational period in hours):        
   GM= n.a.                RAD= 110.3455           ROTPER= 29.43               
   H= 7.                   G= .090                 B-V= .695                   
                           ALBEDO= .050            STYP= CP                    
*******************************************************************************
            JDTDB,            Calendar Date (TDB),        delta-T,                      X,                      Y,                      Z,                     VX,                     VY,                     VZ,
******************************************************************************************************************************************************************************************************************
$$SOE
2473440.500000000, A.D. 2059-Dec-13 00:00:00.0000,      69.183358, -3.510666072855285E+00, -6.341802870332491E-01, -4.746451674589120E-01,  1.319425055770005E-03, -7.187655647391198E-03, -1.035703167728045E-03,
2473445.500000000, A.D. 2059-Dec-18 00:00:00.0000,      69.183491, -3.503789715531355E+00, -6.700676377630241E-01, -4.797857191715680E-01,  1.431074534517092E-03, -7.167095473252925E-03, -1.020491176214311E-03,
2473450.500000000, A.D. 2059-Dec-23 00:00:00.0000,      69.183627, -3.496355760493290E+00, -7.058493506184164E-01, -4.848498158602160E-01,  1.542464220854253E-03, -7.145400598236564E-03, -1.005121166424441E-03,
2473455.500000000, A.D. 2059-Dec-28 00:00:00.0000,      69.183767, -3.488365505575642E+00, -7.415197532928883E-01, -4.898366675138649E-01,  1.653594552807767E-03, -7.122571439308836E-03, -9.895931617211714E-04,
2473460.500000000, A.D. 2060-Jan-02 00:00:00.0000,      69.183911, -3.479820246621997E+00, -7.770731746333084E-01, -4.947454841071198E-01,  1.764465887821483E-03, -7.098608041094304E-03, -9.739071331146126E-04,
2473465.500000000, A.D. 2060-Jan-07 00:00:00.0000,      69.184056, -3.470721277901639E+00, -8.125039427814597E-01, -4.995754753404051E-01,  1.875078497253300E-03, -7.073510077120823E-03, -9.580630000508898E-04,
2473470.500000000, A.D. 2060-Jan-12 00:00:00.0000,      69.184199, -3.461069892553838E+00, -8.478063833211413E-01, -5.043258503840382E-01,  1.985432560818645E-03, -7.047276850811207E-03, -9.420606311630353E-04,
2473475.500000000, A.D. 2060-Jan-17 00:00:00.0000,      69.184339, -3.450867383060093E+00, -8.829748174296070E-01, -5.089958176259664E-01,  2.095528160967672E-03, -7.019907296228639E-03, -9.258998449867391E-04,
2473480.500000000, A.D. 2060-Jan-22 00:00:00.0000,      69.184476, -3.440115041744676E+00, -9.180035600321216E-01, -5.135845844230018E-01,  2.205365277182419E-03, -6.991399978576993E-03, -9.095804106429018E-04,
2473485.500000000, A.D. 2060-Jan-27 00:00:00.0000,      69.184610, -3.428814161303921E+00, -9.528869179584037E-01, -5.180913568553842E-01,  2.314943780184924E-03, -6.961753094455758E-03, -8.931020484873800E-04,
2473490.500000000, A.D. 2060-Feb-01 00:00:00.0000,      69.184742, -3.416966035364662E+00, -9.876191880997160E-01, -5.225153394845028E-01,  2.424263426064018E-03, -6.930964471860028E-03, -8.764644307225268E-04,
2473495.500000000, A.D. 2060-Feb-06 00:00:00.0000,      69.184867, -3.404571959072226E+00, -1.022194655565350E+00, -5.268557351135709E-01,  2.533323850352439E-03, -6.899031569957735E-03, -8.596671819664095E-04,
2473500.500000000, A.D. 2060-Feb-11 00:00:00.0000,      69.184985, -3.391633229708170E+00, -1.056607591837530E+00, -5.311117445510627E-01,  2.642124561996106E-03, -6.865951478671902E-03, -8.427098797980357E-04,
2473505.500000000, A.D. 2060-Feb-16 00:00:00.0000,      69.185094, -3.378151147338748E+00, -1.090852252923966E+00, -5.352825663769271E-01,  2.750664937102384E-03, -6.831720918176457E-03, -8.255920553264957E-04,
2473510.500000000, A.D. 2060-Feb-21 00:00:00.0000,      69.185194, -3.364127015495492E+00, -1.124922877507402E+00, -5.393673967117426E-01,  2.858944212323558E-03, -6.796336238163467E-03, -8.083131937954122E-04,
2473515.500000000, A.D. 2060-Feb-26 00:00:00.0000,      69.185286, -3.349562141889589E+00, -1.158813685090723E+00, -5.433654289888845E-01,  2.966961477988736E-03, -6.759793416793955E-03, -7.908727351752516E-04,
2473520.500000000, A.D. 2060-Mar-02 00:00:00.0000,      69.185370, -3.334457839160912E+00, -1.192518874135960E+00, -5.472758537295254E-01,  3.074715671124634E-03, -6.722088059310694E-03, -7.732700746982314E-04,
2473525.500000000, A.D. 2060-Mar-07 00:00:00.0000,      69.185444, -3.318815425662158E+00, -1.226032620195703E+00, -5.510978583201713E-01,  3.182205568384792E-03, -6.683215396407018E-03, -7.555045633444758E-04,
2473530.500000000, A.D. 2060-Mar-12 00:00:00.0000,      69.185505, -3.302636226278735E+00, -1.259349074035913E+00, -5.548306267925809E-01,  3.289429778806281E-03, -6.643170282423791E-03, -7.375755083139147E-04,
2473535.500000000, A.D. 2060-Mar-17 00:00:00.0000,      69.185554, -3.285921573285485E+00, -1.292462359749310E+00, -5.584733396060682E-01,  3.396386736298075E-03, -6.601947193380486E-03, -7.194821735116598E-04,
2473540.500000000, A.D. 2060-Mar-22 00:00:00.0000,      69.185591, -3.268672807241774E+00, -1.325366572858447E+00, -5.620251734322882E-01,  3.503074691808252E-03, -6.559540224812397E-03, -7.012237800549591E-04,
2473545.500000000, A.D. 2060-Mar-27 00:00:00.0000,      69.185617, -3.250891277926589E+00, -1.358055778407388E+00, -5.654853009425967E-01,  3.609491705152733E-03, -6.515943089366080E-03, -6.827995067941609E-04,
2473550.500000000, A.D. 2060-Apr-01 00:00:00.0000,      69.185633, -3.232578345315301E+00, -1.390524009040710E+00, -5.688528905980249E-01,  3.715635636517968E-03, -6.471149114132258E-03, -6.642084908362729E-04,
2473555.500000000, A.D. 2060-Apr-06 00:00:00.0000,      69.185636, -3.213735380599718E+00, -1.422765263068473E+00, -5.721271064418577E-01,  3.821504137647088E-03, -6.425151237698998E-03, -6.454498280602548E-04,
2473560.500000000, A.D. 2060-Apr-11 00:00:00.0000,      69.185626, -3.194363767252986E+00, -1.454773502515743E+00, -5.753071078947484E-01,  3.927094642717618E-03, -6.377942006917361E-03, -6.265225736148897E-04,
2473565.500000000, A.D. 2060-Apr-16 00:00:00.0000,      69.185603, -3.174464902140842E+00, -1.486542651155214E+00, -5.783920495522524E-01,  4.032404358918596E-03, -6.329513573374339E-03, -6.074257423893658E-04,
2473570.500000000, A.D. 2060-Apr-21 00:00:00.0000,      69.185569, -3.154040196680731E+00, -1.518066592521448E+00, -5.813810809846344E-01,  4.137430256738697E-03, -6.279857689569404E-03, -5.881583094448104E-04,
2473575.500000000, A.D. 2060-Apr-26 00:00:00.0000,      69.185524, -3.133091078050138E+00, -1.549339167905275E+00, -5.842733465386960E-01,  4.242169059986956E-03, -6.228965704799399E-03, -5.687192103934291E-04,
